{
  "type": "FeatureCollection",
  "features": [
    {
      "type": "Feature",
      "properties": {
        "norad_id": 29760,
        "name": "FENGYUN 1C DEB",
        "group": "fengyun-1c-debris",
        "lat": -70.39913718480152,
        "lon": 8.787453925096509,
        "alt_km": 883.25422779155,
        "timestamp": "2025-12-06T18:50:10.439588+00:00",
        "meta_object_name": "FENGYUN 1C DEB",
        "meta_object_id": "1999-025BA",
        "meta_epoch": "2025-12-06T07:14:56.597280",
        "meta_mean_motion": 14.08282519,
        "meta_eccentricity": 0.01304928,
        "meta_inclination": 98.7622,
        "meta_ra_of_asc_node": 342.6536,
        "meta_arg_of_pericenter": 191.7302,
        "meta_mean_anomaly": 168.082,
        "meta_ephemeris_type": 0,
        "meta_classification_type": "U",
        "meta_norad_cat_id": 29760,
        "meta_element_set_no": 999,
        "meta_rev_at_epoch": 97002,
        "meta_bstar": 0.00038672217,
        "meta_mean_motion_dot": 6.72e-06,
        "meta_mean_motion_ddot": 0,
        "tle_line1": "1 29760U 99025BA  25340.30204395  .00000672  00000+0  38672-3 0  9992",
        "tle_line2": "2 29760  98.7622 342.6536 0130492 191.7302 168.0820 14.08282519970024"
      },
      "geometry": {
        "type": "Point",
        "coordinates": [
          8.787453925096509,
          -70.39913718480152
        ]
      }
    },
    {
      "type": "Feature",
      "properties": {
        "norad_id": 29762,
        "name": "FENGYUN 1C DEB",
        "group": "fengyun-1c-debris",
        "lat": -54.46477481961066,
        "lon": -24.06985937070377,
        "alt_km": 724.159501832246,
        "timestamp": "2025-12-06T18:50:10.439599+00:00",
        "meta_object_name": "FENGYUN 1C DEB",
        "meta_object_id": "1999-025BC",
        "meta_epoch": "2025-12-06T05:38:56.543424",
        "meta_mean_motion": 14.22558142,
        "meta_eccentricity": 0.02044309,
        "meta_inclination": 98.5786,
        "meta_ra_of_asc_node": 323.1934,
        "meta_arg_of_pericenter": 354.574,
        "meta_mean_anomaly": 19.5085,
        "meta_ephemeris_type": 0,
        "meta_classification_type": "U",
        "meta_norad_cat_id": 29762,
        "meta_element_set_no": 999,
        "meta_rev_at_epoch": 97856,
        "meta_bstar": 0.00072797428,
        "meta_mean_motion_dot": 1.967e-05,
        "meta_mean_motion_ddot": 0,
        "tle_line1": "1 29762U 99025BC  25340.23537666  .00001967  00000+0  72797-3 0  9990",
        "tle_line2": "2 29762  98.5786 323.1934 0204430 354.5740  19.5085 14.22558142978564"
      },
      "geometry": {
        "type": "Point",
        "coordinates": [
          -24.06985937070377,
          -54.46477481961066
        ]
      }
    },
    {
      "type": "Feature",
      "properties": {
        "norad_id": 29763,
        "name": "FENGYUN 1C DEB",
        "group": "fengyun-1c-debris",
        "lat": 54.2874115124919,
        "lon": 152.7524237109008,
        "alt_km": 832.9743443965099,
        "timestamp": "2025-12-06T18:50:10.439609+00:00",
        "meta_object_name": "FENGYUN 1C DEB",
        "meta_object_id": "1999-025BD",
        "meta_epoch": "2025-12-05T22:06:13.077216",
        "meta_mean_motion": 14.07869625,
        "meta_eccentricity": 0.01270795,
        "meta_inclination": 98.7603,
        "meta_ra_of_asc_node": 319.5287,
        "meta_arg_of_pericenter": 199.787,
        "meta_mean_anomaly": 230.4126,
        "meta_ephemeris_type": 0,
        "meta_classification_type": "U",
        "meta_norad_cat_id": 29763,
        "meta_element_set_no": 999,
        "meta_rev_at_epoch": 96954,
        "meta_bstar": 0.00019146028,
        "meta_mean_motion_dot": 3.07e-06,
        "meta_mean_motion_ddot": 0,
        "tle_line1": "1 29763U 99025BD  25339.92098469  .00000307  00000+0  19146-3 0  9994",
        "tle_line2": "2 29763  98.7603 319.5287 0127079 199.7870 230.4126 14.07869625969543"
      },
      "geometry": {
        "type": "Point",
        "coordinates": [
          152.7524237109008,
          54.2874115124919
        ]
      }
    },
    {
      "type": "Feature",
      "properties": {
        "norad_id": 29765,
        "name": "FENGYUN 1C DEB",
        "group": "fengyun-1c-debris",
        "lat": 47.43806209786386,
        "lon": -171.09691073258296,
        "alt_km": 842.0572482927682,
        "timestamp": "2025-12-06T18:50:10.439619+00:00",
        "meta_object_name": "FENGYUN 1C DEB",
        "meta_object_id": "1999-025BF",
        "meta_epoch": "2025-12-06T08:00:44.407584",
        "meta_mean_motion": 14.02150609,
        "meta_eccentricity": 0.00596465,
        "meta_inclination": 98.8308,
        "meta_ra_of_asc_node": 358.7201,
        "meta_arg_of_pericenter": 110.3398,
        "meta_mean_anomaly": 265.8794,
        "meta_ephemeris_type": 0,
        "meta_classification_type": "U",
        "meta_norad_cat_id": 29765,
        "meta_element_set_no": 999,
        "meta_rev_at_epoch": 96661,
        "meta_bstar": 0.00021752699,
        "meta_mean_motion_dot": 2.96e-06,
        "meta_mean_motion_ddot": 0,
        "tle_line1": "1 29765U 99025BF  25340.33384731  .00000296  00000+0  21753-3 0  9997",
        "tle_line2": "2 29765  98.8308 358.7201 0059646 110.3398 265.8794 14.02150609966615"
      },
      "geometry": {
        "type": "Point",
        "coordinates": [
          -171.09691073258296,
          47.43806209786386
        ]
      }
    },
    {
      "type": "Feature",
      "properties": {
        "norad_id": 29766,
        "name": "FENGYUN 1C DEB",
        "group": "fengyun-1c-debris",
        "lat": 31.792622417477762,
        "lon": -74.69602338341399,
        "alt_km": 896.0794193496749,
        "timestamp": "2025-12-06T18:50:10.439629+00:00",
        "meta_object_name": "FENGYUN 1C DEB",
        "meta_object_id": "1999-025BG",
        "meta_epoch": "2025-12-06T03:17:31.570080",
        "meta_mean_motion": 13.97004111,
        "meta_eccentricity": 0.01466634,
        "meta_inclination": 98.6844,
        "meta_ra_of_asc_node": 290.1281,
        "meta_arg_of_pericenter": 306.5822,
        "meta_mean_anomaly": 68.5489,
        "meta_ephemeris_type": 0,
        "meta_classification_type": "U",
        "meta_norad_cat_id": 29766,
        "meta_element_set_no": 999,
        "meta_rev_at_epoch": 95712,
        "meta_bstar": 0.0025715352,
        "meta_mean_motion_dot": 3.887e-05,
        "meta_mean_motion_ddot": 0,
        "tle_line1": "1 29766U 99025BG  25340.13717095  .00003887  00000+0  25715-2 0  9999",
        "tle_line2": "2 29766  98.6844 290.1281 0146663 306.5822  68.5489 13.97004111957127"
      },
      "geometry": {
        "type": "Point",
        "coordinates": [
          -74.69602338341399,
          31.792622417477762
        ]
      }
    },
    {
      "type": "Feature",
      "properties": {
        "norad_id": 29767,
        "name": "FENGYUN 1C DEB",
        "group": "fengyun-1c-debris",
        "lat": 28.50184238909388,
        "lon": 134.54539341368795,
        "alt_km": 802.8527131459596,
        "timestamp": "2025-12-06T18:50:10.439640+00:00",
        "meta_object_name": "FENGYUN 1C DEB",
        "meta_object_id": "1999-025BH",
        "meta_epoch": "2025-12-06T05:02:04.632576",
        "meta_mean_motion": 14.03250303,
        "meta_eccentricity": 0.03331339,
        "meta_inclination": 98.1991,
        "meta_ra_of_asc_node": 309.5357,
        "meta_arg_of_pericenter": 79.7915,
        "meta_mean_anomaly": 44.2258,
        "meta_ephemeris_type": 0,
        "meta_classification_type": "U",
        "meta_norad_cat_id": 29767,
        "meta_element_set_no": 999,
        "meta_rev_at_epoch": 95508,
        "meta_bstar": 0.0031761241,
        "meta_mean_motion_dot": 8.076e-05,
        "meta_mean_motion_ddot": 0,
        "tle_line1": "1 29767U 99025BH  25340.20977584  .00008076  00000+0  31761-2 0  9992",
        "tle_line2": "2 29767  98.1991 309.5357 0333133  79.7915  44.2258 14.03250303955089"
      },
      "geometry": {
        "type": "Point",
        "coordinates": [
          134.54539341368795,
          28.50184238909388
        ]
      }
    },
    {
      "type": "Feature",
      "properties": {
        "norad_id": 29769,
        "name": "FENGYUN 1C DEB",
        "group": "fengyun-1c-debris",
        "lat": -19.4952130589765,
        "lon": 41.21493912445304,
        "alt_km": 918.6900119981065,
        "timestamp": "2025-12-06T18:50:10.439650+00:00",
        "meta_object_name": "FENGYUN 1C DEB",
        "meta_object_id": "1999-025BK",
        "meta_epoch": "2025-12-02T16:23:36.839328",
        "meta_mean_motion": 14.1344001,
        "meta_eccentricity": 0.00941574,
        "meta_inclination": 99.1074,
        "meta_ra_of_asc_node": 33.7848,
        "meta_arg_of_pericenter": 158.4055,
        "meta_mean_anomaly": 202.1129,
        "meta_ephemeris_type": 0,
        "meta_classification_type": "U",
        "meta_norad_cat_id": 29769,
        "meta_element_set_no": 999,
        "meta_rev_at_epoch": 96539,
        "meta_bstar": 0.0018821587,
        "meta_mean_motion_dot": 3.647e-05,
        "meta_mean_motion_ddot": 0,
        "tle_line1": "1 29769U 99025BK  25336.68306527  .00003647  00000+0  18822-2 0  9996",
        "tle_line2": "2 29769  99.1074  33.7848 0094157 158.4055 202.1129 14.13440010965399"
      },
      "geometry": {
        "type": "Point",
        "coordinates": [
          41.21493912445304,
          -19.4952130589765
        ]
      }
    }
  ]
}